GLOBALSTAR M035         
1 25851U 99037A   25273.48994248 -.00000022  00000+0  15857-2 0  9998
2 25851  51.9933 180.1302 0013390 148.9086  21.5098 11.04539390107895
GLOBALSTAR M032         
1 25852U 99037B   25273.46581027 -.00000078  00000+0 -36368-3 0  9997
2 25852  51.9996 358.1200 0012091 345.1151  14.9292 11.19063251146574
GLOBALSTAR M051         
1 25853U 99037C   25273.33238351 -.00000075  00000+0 -87143-4 0  9998
2 25853  51.9775 147.2419 0001353  59.2153 300.8791 11.42205280144400
GLOBALSTAR M030         
1 25854U 99037D   25273.39624294 -.00000040  00000+0  73762-3 0  9992
2 25854  51.9887 306.5061 0003061 233.2278 126.8258 11.55115142162201
GLOBALSTAR M048         
1 25872U 99041A   25272.76759789 -.00000072  00000+0 -48149-4 0  9993
2 25872  51.9351  87.6787 0013500  10.1626  88.2617 11.33859240136848
GLOBALSTAR M026         
1 25873U 99041B   25273.47965728 -.00000023  00000+0  15031-2 0  9992
2 25873  52.0014 297.0052 0001821  87.3057  89.9912 11.06852474160144
GLOBALSTAR M043         
1 25874U 99041C   25273.51812529 -.00000100  00000+0 -93385-3 0  9994
2 25874  51.9389 197.7405 0013491 127.8679  43.3957 11.25693981134738
GLOBALSTAR M028         
1 25875U 99041D   25273.09310610 -.00000084  00000+0  10574-3 0  9991
2 25875  51.9614 240.2532 0063199 299.6591  59.7987 12.50588837203302
